IRIDIUM 63              
1 25286U 98021B   25279.76471507  .00000791  00000+0  26243-3 0  9991
2 25286  86.4009  35.2958 0001918  91.6281 268.5136 14.36649456439869
IRIDIUM 69              
1 25319U 98026A   25279.64284789  .00001099  00000+0  33544-3 0  9998
2 25319  86.3978  48.2850 0003557  51.3418 308.8100 14.41094274439116
IRIDIUM 71              
1 25320U 98026B   25279.63558546  .00000588  00000+0  17601-3 0  9992
2 25320  86.3987  42.9652 0004235  85.2576 274.9108 14.41252599439649
IRIDIUM 73              
1 25344U 98032C   25279.92805091  .00000966  00000+0  23484-3 0  9993
2 25344  86.4470 359.3681 0002035  75.0870 285.0561 14.51865819446774
IRIDIUM 82              
1 25467U 98051A   25279.84428364  .00055493  00000+0  13099-2 0  9990
2 25467  86.3636  54.5673 0073493 230.9823 128.4873 15.38807417441085
